{
  "type": "FeatureCollection",
  "features": [
    {
      "type": "Feature",
      "properties": {
        "norad_id": 33805,
        "name": "COSMOS 2251 DEB",
        "group": "cosmos-2251-debris",
        "lat": 26.98973651927892,
        "lon": -69.03730765099257,
        "alt_km": 690.184501847536,
        "timestamp": "2025-12-27T20:30:59.672571+00:00",
        "meta_object_name": "COSMOS 2251 DEB",
        "meta_object_id": "1993-036AW",
        "meta_epoch": "2025-12-27T05:33:56.451168",
        "meta_mean_motion": 14.5788835,
        "meta_eccentricity": 0.0059865,
        "meta_inclination": 74.0313,
        "meta_ra_of_asc_node": 283.7617,
        "meta_arg_of_pericenter": 108.4924,
        "meta_mean_anomaly": 252.2759,
        "meta_ephemeris_type": 0,
        "meta_classification_type": "U",
        "meta_norad_cat_id": 33805,
        "meta_element_set_no": 999,
        "meta_rev_at_epoch": 89438,
        "meta_bstar": 0.00027604,
        "meta_mean_motion_dot": 1.267e-05,
        "meta_mean_motion_ddot": 0,
        "tle_line1": "1 33805U 93036AW  25361.23190337  .00001267  00000+0  27604-3 0  9992",
        "tle_line2": "2 33805  74.0313 283.7617 0059865 108.4924 252.2759 14.57888350894387"
      },
      "geometry": {
        "type": "Point",
        "coordinates": [
          -69.03730765099257,
          26.98973651927892
        ]
      }
    },
    {
      "type": "Feature",
      "properties": {
        "norad_id": 33811,
        "name": "COSMOS 2251 DEB",
        "group": "cosmos-2251-debris",
        "lat": -32.626908659647796,
        "lon": -99.40083471528453,
        "alt_km": 535.3616114802398,
        "timestamp": "2025-12-27T20:30:59.672581+00:00",
        "meta_object_name": "COSMOS 2251 DEB",
        "meta_object_id": "1993-036BC",
        "meta_epoch": "2025-12-27T05:25:34.497408",
        "meta_mean_motion": 15.05709407,
        "meta_eccentricity": 0.0031,
        "meta_inclination": 73.8375,
        "meta_ra_of_asc_node": 272.6034,
        "meta_arg_of_pericenter": 350.9506,
        "meta_mean_anomaly": 168.3106,
        "meta_ephemeris_type": 0,
        "meta_classification_type": "U",
        "meta_norad_cat_id": 33811,
        "meta_element_set_no": 999,
        "meta_rev_at_epoch": 90236,
        "meta_bstar": 0.0011887,
        "meta_mean_motion_dot": 0.0001738,
        "meta_mean_motion_ddot": 0,
        "tle_line1": "1 33811U 93036BC  25361.22609372  .00017380  00000+0  11887-2 0  9990",
        "tle_line2": "2 33811  73.8375 272.6034 0031000 350.9506 168.3106 15.05709407902360"
      },
      "geometry": {
        "type": "Point",
        "coordinates": [
          -99.40083471528453,
          -32.626908659647796
        ]
      }
    },
    {
      "type": "Feature",
      "properties": {
        "norad_id": 33815,
        "name": "COSMOS 2251 DEB",
        "group": "cosmos-2251-debris",
        "lat": 65.78341805922435,
        "lon": -75.06268188539903,
        "alt_km": 493.50919695047924,
        "timestamp": "2025-12-27T20:30:59.672592+00:00",
        "meta_object_name": "COSMOS 2251 DEB",
        "meta_object_id": "1993-036BG",
        "meta_epoch": "2025-12-27T12:27:46.097856",
        "meta_mean_motion": 15.22485853,
        "meta_eccentricity": 0.0005079,
        "meta_inclination": 73.9505,
        "meta_ra_of_asc_node": 145.4439,
        "meta_arg_of_pericenter": 337.0131,
        "meta_mean_anomaly": 92.7256,
        "meta_ephemeris_type": 0,
        "meta_classification_type": "U",
        "meta_norad_cat_id": 33815,
        "meta_element_set_no": 999,
        "meta_rev_at_epoch": 88595,
        "meta_bstar": 0.0091356,
        "meta_mean_motion_dot": 0.0021813,
        "meta_mean_motion_ddot": 0,
        "tle_line1": "1 33815U 93036BG  25361.51928354  .00218130  00000+0  91356-2 0  9995",
        "tle_line2": "2 33815  73.9505 145.4439 0005079 337.0131  92.7256 15.22485853885959"
      },
      "geometry": {
        "type": "Point",
        "coordinates": [
          -75.06268188539903,
          65.78341805922435
        ]
      }
    },
    {
      "type": "Feature",
      "properties": {
        "norad_id": 33816,
        "name": "COSMOS 2251 DEB",
        "group": "cosmos-2251-debris",
        "lat": 7.543338330256896,
        "lon": 81.97060743041266,
        "alt_km": 926.2175034186894,
        "timestamp": "2025-12-27T20:30:59.672602+00:00",
        "meta_object_name": "COSMOS 2251 DEB",
        "meta_object_id": "1993-036BH",
        "meta_epoch": "2025-12-27T11:47:28.529952",
        "meta_mean_motion": 13.81799429,
        "meta_eccentricity": 0.0264071,
        "meta_inclination": 73.8953,
        "meta_ra_of_asc_node": 80.3941,
        "meta_arg_of_pericenter": 90.3966,
        "meta_mean_anomaly": 272.7417,
        "meta_ephemeris_type": 0,
        "meta_classification_type": "U",
        "meta_norad_cat_id": 33816,
        "meta_element_set_no": 999,
        "meta_rev_at_epoch": 84877,
        "meta_bstar": 0.00037257,
        "meta_mean_motion_dot": 4.98e-06,
        "meta_mean_motion_ddot": 0,
        "tle_line1": "1 33816U 93036BH  25361.49130243  .00000498  00000+0  37257-3 0  9992",
        "tle_line2": "2 33816  73.8953  80.3941 0264071  90.3966 272.7417 13.81799429848773"
      },
      "geometry": {
        "type": "Point",
        "coordinates": [
          81.97060743041266,
          7.543338330256896
        ]
      }
    },
    {
      "type": "Feature",
      "properties": {
        "norad_id": 33818,
        "name": "COSMOS 2251 DEB",
        "group": "cosmos-2251-debris",
        "lat": -23.48399257106366,
        "lon": 127.85013291760445,
        "alt_km": 542.0936878034263,
        "timestamp": "2025-12-27T20:30:59.672613+00:00",
        "meta_object_name": "COSMOS 2251 DEB",
        "meta_object_id": "1993-036BK",
        "meta_epoch": "2025-12-27T08:00:58.360320",
        "meta_mean_motion": 15.1375985,
        "meta_eccentricity": 0.0023351,
        "meta_inclination": 74.0796,
        "meta_ra_of_asc_node": 136.0522,
        "meta_arg_of_pericenter": 116.9034,
        "meta_mean_anomaly": 261.6929,
        "meta_ephemeris_type": 0,
        "meta_classification_type": "U",
        "meta_norad_cat_id": 33818,
        "meta_element_set_no": 999,
        "meta_rev_at_epoch": 90083,
        "meta_bstar": 0.0029847,
        "meta_mean_motion_dot": 0.00054564,
        "meta_mean_motion_ddot": 0,
        "tle_line1": "1 33818U 93036BK  25361.33400880  .00054564  00000+0  29847-2 0  9992",
        "tle_line2": "2 33818  74.0796 136.0522 0023351 116.9034 261.6929 15.13759850900834"
      },
      "geometry": {
        "type": "Point",
        "coordinates": [
          127.85013291760445,
          -23.48399257106366
        ]
      }
    },
    {
      "type": "Feature",
      "properties": {
        "norad_id": 33819,
        "name": "COSMOS 2251 DEB",
        "group": "cosmos-2251-debris",
        "lat": 22.679679994690012,
        "lon": -170.6895684971858,
        "alt_km": 721.5399208473036,
        "timestamp": "2025-12-27T20:30:59.672623+00:00",
        "meta_object_name": "COSMOS 2251 DEB",
        "meta_object_id": "1993-036BL",
        "meta_epoch": "2025-12-27T12:10:02.669376",
        "meta_mean_motion": 14.32269509,
        "meta_eccentricity": 0.0089614,
        "meta_inclination": 74.1772,
        "meta_ra_of_asc_node": 183.1336,
        "meta_arg_of_pericenter": 40.007,
        "meta_mean_anomaly": 350.9824,
        "meta_ephemeris_type": 0,
        "meta_classification_type": "U",
        "meta_norad_cat_id": 33819,
        "meta_element_set_no": 999,
        "meta_rev_at_epoch": 87707,
        "meta_bstar": 0.00057019,
        "meta_mean_motion_dot": 1.584e-05,
        "meta_mean_motion_ddot": 0,
        "tle_line1": "1 33819U 93036BL  25361.50697534  .00001584  00000+0  57019-3 0  9993",
        "tle_line2": "2 33819  74.1772 183.1336 0089614  40.0070 350.9824 14.32269509877079"
      },
      "geometry": {
        "type": "Point",
        "coordinates": [
          -170.6895684971858,
          22.679679994690012
        ]
      }
    },
    {
      "type": "Feature",
      "properties": {
        "norad_id": 33821,
        "name": "COSMOS 2251 DEB",
        "group": "cosmos-2251-debris",
        "lat": 67.48998543527146,
        "lon": -112.85266803571223,
        "alt_km": 451.9396101879511,
        "timestamp": "2025-12-27T20:30:59.672633+00:00",
        "meta_object_name": "COSMOS 2251 DEB",
        "meta_object_id": "1993-036BN",
        "meta_epoch": "2025-12-27T10:36:54.357120",
        "meta_mean_motion": 15.2625464,
        "meta_eccentricity": 0.0048758,
        "meta_inclination": 74.0298,
        "meta_ra_of_asc_node": 111.7336,
        "meta_arg_of_pericenter": 140.1672,
        "meta_mean_anomaly": 220.3125,
        "meta_ephemeris_type": 0,
        "meta_classification_type": "U",
        "meta_norad_cat_id": 33821,
        "meta_element_set_no": 999,
        "meta_rev_at_epoch": 75225,
        "meta_bstar": 0.0013315,
        "meta_mean_motion_dot": 0.0003585,
        "meta_mean_motion_ddot": 0,
        "tle_line1": "1 33821U 93036BN  25361.44229580  .00035850  00000+0  13315-2 0  9994",
        "tle_line2": "2 33821  74.0298 111.7336 0048758 140.1672 220.3125 15.26254640752255"
      },
      "geometry": {
        "type": "Point",
        "coordinates": [
          -112.85266803571223,
          67.48998543527146
        ]
      }
    }
  ]
}